[{"OBJECT_NAME":"STARLINK-35093","OBJECT_ID":"2025-195W","EPOCH":"2025-10-02T04:10:24.737952","MEAN_MOTION":15.49368907,"ECCENTRICITY":0.0001419,"INCLINATION":53.1573,"RA_OF_ASC_NODE":277.3458,"ARG_OF_PERICENTER":26.728,"MEAN_ANOMALY":333.3802,"EPHEMERIS_TYPE":0,"CLASSIFICATION_TYPE":"U","NORAD_CAT_ID":65478,"ELEMENT_SET_NO":999,"REV_AT_EPOCH":566,"BSTAR":0.0031951,"MEAN_MOTION_DOT":0.00181829,"MEAN_MOTION_DDOT":0},{"OBJECT_NAME":"STARLINK-35096","OBJECT_ID":"2025-195X","EPOCH":"2025-10-02T04:09:54.741600","MEAN_MOTION":15.49354268,"ECCENTRICITY":0.0001058,"INCLINATION":53.1572,"RA_OF_ASC_NODE":277.3441,"ARG_OF_PERICENTER":103.2591,"MEAN_ANOMALY":256.8536,"EPHEMERIS_TYPE":0,"CLASSIFICATION_TYPE":"U","NORAD_CAT_ID":65479,"ELEMENT_SET_NO":999,"REV_AT_EPOCH":566,"BSTAR":0.0021483,"MEAN_MOTION_DOT":0.00121095,"MEAN_MOTION_DDOT":0},{"OBJECT_NAME":"STARLINK-35040","OBJECT_ID":"2025-195Y","EPOCH":"2025-10-01T16:00:08.737056","MEAN_MOTION":15.49367305,"ECCENTRICITY":0.00012492,"INCLINATION":53.159,"RA_OF_ASC_NODE":279.1452,"ARG_OF_PERICENTER":72.9119,"MEAN_ANOMALY":287.2027,"EPHEMERIS_TYPE":0,"CLASSIFICATION_TYPE":"U","NORAD_CAT_ID":65480,"ELEMENT_SET_NO":999,"REV_AT_EPOCH":559,"BSTAR":-9.1070508e-5,"MEAN_MOTION_DOT":-5.52e-5,"MEAN_MOTION_DDOT":0},{"OBJECT_NAME":"STARLINK-35042","OBJECT_ID":"2025-195Z","EPOCH":"2025-10-02T04:11:25.476288","MEAN_MOTION":15.47701245,"ECCENTRICITY":0.0002131,"INCLINATION":53.158,"RA_OF_ASC_NODE":277.3506,"ARG_OF_PERICENTER":112.5493,"MEAN_ANOMALY":247.5741,"EPHEMERIS_TYPE":0,"CLASSIFICATION_TYPE":"U","NORAD_CAT_ID":65481,"ELEMENT_SET_NO":999,"REV_AT_EPOCH":566,"BSTAR":-0.01426,"MEAN_MOTION_DOT":-0.0069599,"MEAN_MOTION_DDOT":0},{"OBJECT_NAME":"STARLINK-35038","OBJECT_ID":"2025-195AA","EPOCH":"2025-10-01T14:26:45.745440","MEAN_MOTION":15.49334438,"ECCENTRICITY":0.00014632,"INCLINATION":53.1594,"RA_OF_ASC_NODE":279.4526,"ARG_OF_PERICENTER":50.4119,"MEAN_ANOMALY":309.7019,"EPHEMERIS_TYPE":0,"CLASSIFICATION_TYPE":"U","NORAD_CAT_ID":65482,"ELEMENT_SET_NO":999,"REV_AT_EPOCH":558,"BSTAR":0.0020297624,"MEAN_MOTION_DOT":0.00114206,"MEAN_MOTION_DDOT":0},{"OBJECT_NAME":"STARLINK-35037","OBJECT_ID":"2025-195AB","EPOCH":"2025-10-01T14:26:16.213056","MEAN_MOTION":15.49306116,"ECCENTRICITY":0.00017839,"INCLINATION":53.1599,"RA_OF_ASC_NODE":279.4516,"ARG_OF_PERICENTER":45.0835,"MEAN_ANOMALY":315.0318,"EPHEMERIS_TYPE":0,"CLASSIFICATION_TYPE":"U","NORAD_CAT_ID":65483,"ELEMENT_SET_NO":999,"REV_AT_EPOCH":558,"BSTAR":0.0012507947,"MEAN_MOTION_DOT":0.00069733,"MEAN_MOTION_DDOT":0},{"OBJECT_NAME":"STARLINK-35089","OBJECT_ID":"2025-195AC","EPOCH":"2025-10-02T01:15:24.264288","MEAN_MOTION":15.49642932,"ECCENTRICITY":0.0001622,"INCLINATION":53.159,"RA_OF_ASC_NODE":277.2855,"ARG_OF_PERICENTER":80.7431,"MEAN_ANOMALY":279.3761,"EPHEMERIS_TYPE":0,"CLASSIFICATION_TYPE":"U","NORAD_CAT_ID":65484,"ELEMENT_SET_NO":999,"REV_AT_EPOCH":565,"BSTAR":0.0039733,"MEAN_MOTION_DOT":0.00229841,"MEAN_MOTION_DDOT":0},{"OBJECT_NAME":"STARLINK-35143","OBJECT_ID":"2025-195AD","EPOCH":"2025-10-01T14:25:45.970464","MEAN_MOTION":15.4935001,"ECCENTRICITY":8.672e-5,"INCLINATION":53.1594,"RA_OF_ASC_NODE":279.4458,"ARG_OF_PERICENTER":89.3957,"MEAN_ANOMALY":270.7151,"EPHEMERIS_TYPE":0,"CLASSIFICATION_TYPE":"U","NORAD_CAT_ID":65485,"ELEMENT_SET_NO":999,"REV_AT_EPOCH":558,"BSTAR":0.0023037181,"MEAN_MOTION_DOT":0.00130016,"MEAN_MOTION_DDOT":0},{"OBJECT_NAME":"STARLINK-35226","OBJECT_ID":"2025-198A","EPOCH":"2025-10-02T04:00:03.000096","MEAN_MOTION":15.52252501,"ECCENTRICITY":0.0001551,"INCLINATION":53.1594,"RA_OF_ASC_NODE":296.4565,"ARG_OF_PERICENTER":90.7085,"MEAN_ANOMALY":171.0298,"EPHEMERIS_TYPE":0,"CLASSIFICATION_TYPE":"U","NORAD_CAT_ID":65492,"ELEMENT_SET_NO":999,"REV_AT_EPOCH":484,"BSTAR":-0.029108,"MEAN_MOTION_DOT":-0.01616801,"MEAN_MOTION_DDOT":0},{"OBJECT_NAME":"STARLINK-35242","OBJECT_ID":"2025-198B","EPOCH":"2025-10-02T04:00:03.000096","MEAN_MOTION":15.52267145,"ECCENTRICITY":0.0001319,"INCLINATION":53.1595,"RA_OF_ASC_NODE":296.4607,"ARG_OF_PERICENTER":86.5241,"MEAN_ANOMALY":173.2903,"EPHEMERIS_TYPE":0,"CLASSIFICATION_TYPE":"U","NORAD_CAT_ID":65493,"ELEMENT_SET_NO":999,"REV_AT_EPOCH":484,"BSTAR":-0.029544,"MEAN_MOTION_DOT":-0.01639258,"MEAN_MOTION_DDOT":0},{"OBJECT_NAME":"STARLINK-35223","OBJECT_ID":"2025-198C","EPOCH":"2025-10-02T04:00:03.000096","MEAN_MOTION":15.5225406,"ECCENTRICITY":0.0001515,"INCLINATION":53.1595,"RA_OF_ASC_NODE":296.4482,"ARG_OF_PERICENTER":89.9314,"MEAN_ANOMALY":175.6375,"EPHEMERIS_TYPE":0,"CLASSIFICATION_TYPE":"U","NORAD_CAT_ID":65494,"ELEMENT_SET_NO":999,"REV_AT_EPOCH":484,"BSTAR":-0.029166,"MEAN_MOTION_DOT":-0.01619793,"MEAN_MOTION_DDOT":0},{"OBJECT_NAME":"STARLINK-34446","OBJECT_ID":"2025-198D","EPOCH":"2025-10-02T04:00:03.000096","MEAN_MOTION":15.52265154,"ECCENTRICITY":0.0001413,"INCLINATION":53.1597,"RA_OF_ASC_NODE":296.4526,"ARG_OF_PERICENTER":93.4996,"MEAN_ANOMALY":170.1506,"EPHEMERIS_TYPE":0,"CLASSIFICATION_TYPE":"U","NORAD_CAT_ID":65495,"ELEMENT_SET_NO":999,"REV_AT_EPOCH":510,"BSTAR":-0.029498,"MEAN_MOTION_DOT":-0.01636914,"MEAN_MOTION_DDOT":0},{"OBJECT_NAME":"STARLINK-35212","OBJECT_ID":"2025-198E","EPOCH":"2025-10-02T04:00:03.000096","MEAN_MOTION":15.52256925,"ECCENTRICITY":0.0001519,"INCLINATION":53.1593,"RA_OF_ASC_NODE":296.4402,"ARG_OF_PERICENTER":90.1943,"MEAN_ANOMALY":179.2093,"EPHEMERIS_TYPE":0,"CLASSIFICATION_TYPE":"U","NORAD_CAT_ID":65496,"ELEMENT_SET_NO":999,"REV_AT_EPOCH":484,"BSTAR":-0.029267,"MEAN_MOTION_DOT":-0.01624975,"MEAN_MOTION_DDOT":0},{"OBJECT_NAME":"STARLINK-34455","OBJECT_ID":"2025-198F","EPOCH":"2025-10-01T22:00:03.000096","MEAN_MOTION":15.53110923,"ECCENTRICITY":0.00011019,"INCLINATION":53.1594,"RA_OF_ASC_NODE":297.6447,"ARG_OF_PERICENTER":79.2302,"MEAN_ANOMALY":230.0495,"EPHEMERIS_TYPE":0,"CLASSIFICATION_TYPE":"U","NORAD_CAT_ID":65497,"ELEMENT_SET_NO":999,"REV_AT_EPOCH":507,"BSTAR":-0.027631847,"MEAN_MOTION_DOT":-0.01586605,"MEAN_MOTION_DDOT":0},{"OBJECT_NAME":"STARLINK-35203","OBJECT_ID":"2025-198G","EPOCH":"2025-10-02T04:00:03.000096","MEAN_MOTION":15.52262001,"ECCENTRICITY":0.0001156,"INCLINATION":53.1595,"RA_OF_ASC_NODE":296.4284,"ARG_OF_PERICENTER":100.0043,"MEAN_ANOMALY":175.15,"EPHEMERIS_TYPE":0,"CLASSIFICATION_TYPE":"U","NORAD_CAT_ID":65498,"ELEMENT_SET_NO":999,"REV_AT_EPOCH":504,"BSTAR":-0.029429,"MEAN_MOTION_DOT":-0.01633153,"MEAN_MOTION_DDOT":0},{"OBJECT_NAME":"STARLINK-35166","OBJECT_ID":"2025-198H","EPOCH":"2025-10-02T04:00:03.000096","MEAN_MOTION":15.52261701,"ECCENTRICITY":0.0001405,"INCLINATION":53.1598,"RA_OF_ASC_NODE":296.4205,"ARG_OF_PERICENTER":84.4903,"MEAN_ANOMALY":194.4974,"EPHEMERIS_TYPE":0,"CLASSIFICATION_TYPE":"U","NORAD_CAT_ID":65499,"ELEMENT_SET_NO":999,"REV_AT_EPOCH":505,"BSTAR":-0.029486,"MEAN_MOTION_DOT":-0.01636105,"MEAN_MOTION_DDOT":0}]
