STARLINK-35093          
1 65478U 25195W   25275.17389743  .00181829  00000+0  31951-2 0  9994
2 65478  53.1573 277.3458 0001419  26.7280 333.3802 15.49368907  5663
STARLINK-35096          
1 65479U 25195X   25275.17355025  .00121095  00000+0  21483-2 0  9999
2 65479  53.1572 277.3441 0001058 103.2591 256.8536 15.49354268  5668
STARLINK-35040          
1 65480U 25195Y   25274.66676779 -.00005520  00000+0 -91071-4 0  9994
2 65480  53.1590 279.1452 0001249  72.9119 287.2027 15.49367305  5593
STARLINK-35042          
1 65481U 25195Z   25275.17460042 -.00695990  00000+0 -14260-1 0  9994
2 65481  53.1580 277.3506 0002131 112.5493 247.5741 15.47701245  5663
STARLINK-35038          
1 65482U 25195AA  25274.60191835  .00114206  00000+0  20298-2 0  9996
2 65482  53.1594 279.4526 0001463  50.4119 309.7019 15.49334438  5584
STARLINK-35037          
1 65483U 25195AB  25274.60157654  .00069733  00000+0  12508-2 0  9997
2 65483  53.1599 279.4516 0001783  45.0835 315.0318 15.49306116  5583
STARLINK-35089          
1 65484U 25195AC  25275.05236417  .00229841  00000+0  39733-2 0  9990
2 65484  53.1590 277.2855 0001622  80.7431 279.3761 15.49642932  5658
STARLINK-35143          
1 65485U 25195AD  25274.60122651  .00130016  00000+0  23037-2 0  9990
2 65485  53.1594 279.4458 0000867  89.3957 270.7151 15.49350010  5587
STARLINK-35226          
1 65492U 25198A   25275.16670139 -.01616801  00000+0 -29108-1 0  9990
2 65492  53.1594 296.4565 0001551  90.7085 171.0298 15.52252501  4845
STARLINK-35242          
1 65493U 25198B   25275.16670139 -.01639258  00000+0 -29544-1 0  9996
2 65493  53.1595 296.4607 0001319  86.5241 173.2903 15.52267145  4840
STARLINK-35223          
1 65494U 25198C   25275.16670139 -.01619793  00000+0 -29166-1 0  9999
2 65494  53.1595 296.4482 0001515  89.9314 175.6375 15.52254060  4849
STARLINK-34446          
1 65495U 25198D   25275.16670139 -.01636914  00000+0 -29498-1 0  9992
2 65495  53.1597 296.4526 0001413  93.4996 170.1506 15.52265154  5106
STARLINK-35212          
1 65496U 25198E   25275.16670139 -.01624975  00000+0 -29267-1 0  9991
2 65496  53.1593 296.4402 0001519  90.1943 179.2093 15.52256925  4846
STARLINK-34455          
1 65497U 25198F   25274.91670139 -.01586605  00000+0 -27632-1 0  9995
2 65497  53.1594 297.6447 0001101  79.2302 230.0495 15.53110923  5070
STARLINK-35203          
1 65498U 25198G   25275.16670139 -.01633153  00000+0 -29429-1 0  9991
2 65498  53.1595 296.4284 0001156 100.0043 175.1500 15.52262001  5040
STARLINK-35166          
1 65499U 25198H   25275.16670139 -.01636105  00000+0 -29486-1 0  9995
2 65499  53.1598 296.4205 0001405  84.4903 194.4974 15.52261701  5050
